STARLINK-30322          
1 57670U 23124H   26068.70332945 -.00000645  00000+0 -96486-5 0  9996
2 57670  53.1606 207.0037 0001278  66.9385 293.1751 15.30188184143568
TEVEL2-1                
1 63217U 25052H   26068.64782323  .00020683  00000+0  70600-3 0  9994
2 63217  97.3991 324.7682 0004767 104.8919 255.2849 15.30341923 54855
